{
  "type": "FeatureCollection",
  "features": [
    {
      "type": "Feature",
      "properties": {
        "norad_id": 60182,
        "name": "ALOS-4 (DAICHI-4)",
        "group": "resource",
        "lat": -34.89326498894387,
        "lon": 93.77618293624627,
        "alt_km": 637.9496488352297,
        "timestamp": "2025-12-19T10:50:00.849643+00:00",
        "meta_object_name": "ALOS-4 (DAICHI-4)",
        "meta_object_id": "2024-123A",
        "meta_epoch": "2025-12-18T22:00:26.051616",
        "meta_mean_motion": 14.79471696,
        "meta_eccentricity": 0.00013855,
        "meta_inclination": 97.9224,
        "meta_ra_of_asc_node": 87.6761,
        "meta_arg_of_pericenter": 101.7018,
        "meta_mean_anomaly": 258.4349,
        "meta_ephemeris_type": 0,
        "meta_classification_type": "U",
        "meta_norad_cat_id": 60182,
        "meta_element_set_no": 999,
        "meta_rev_at_epoch": 7922,
        "meta_bstar": 0.00022369546,
        "meta_mean_motion_dot": 1.62e-05,
        "meta_mean_motion_ddot": 0,
        "tle_line1": "1 60182U 24123A   25352.91696819  .00001620  00000+0  22370-3 0  9990",
        "tle_line2": "2 60182  97.9224  87.6761 0001385 101.7018 258.4349 14.79471696 79221"
      },
      "geometry": {
        "type": "Point",
        "coordinates": [
          93.77618293624627,
          -34.89326498894387
        ]
      }
    },
    {
      "type": "Feature",
      "properties": {
        "norad_id": 60452,
        "name": "LEGION 3",
        "group": "resource",
        "lat": -23.080420981362153,
        "lon": 119.38833747618116,
        "alt_km": 510.91025700408954,
        "timestamp": "2025-12-19T10:50:00.849653+00:00",
        "meta_object_name": "LEGION 3",
        "meta_object_id": "2024-146A",
        "meta_epoch": "2025-12-18T21:14:29.056128",
        "meta_mean_motion": 15.15824429,
        "meta_eccentricity": 0.00155703,
        "meta_inclination": 45.0023,
        "meta_ra_of_asc_node": 277.1872,
        "meta_arg_of_pericenter": 231.8493,
        "meta_mean_anomaly": 128.0983,
        "meta_ephemeris_type": 0,
        "meta_classification_type": "U",
        "meta_norad_cat_id": 60452,
        "meta_element_set_no": 999,
        "meta_rev_at_epoch": 7466,
        "meta_bstar": 0.00020352446,
        "meta_mean_motion_dot": 3.702e-05,
        "meta_mean_motion_ddot": 0,
        "tle_line1": "1 60452U 24146A   25352.88505852  .00003702  00000+0  20352-3 0  9998",
        "tle_line2": "2 60452  45.0023 277.1872 0015570 231.8493 128.0983 15.15824429 74660"
      },
      "geometry": {
        "type": "Point",
        "coordinates": [
          119.38833747618116,
          -23.080420981362153
        ]
      }
    },
    {
      "type": "Feature",
      "properties": {
        "norad_id": 60453,
        "name": "LEGION 4",
        "group": "resource",
        "lat": -21.95687236324229,
        "lon": -150.32108190460966,
        "alt_km": 524.9692477102353,
        "timestamp": "2025-12-19T10:50:00.849664+00:00",
        "meta_object_name": "LEGION 4",
        "meta_object_id": "2024-146B",
        "meta_epoch": "2025-12-18T21:15:00.617184",
        "meta_mean_motion": 15.15886403,
        "meta_eccentricity": 0.00089144,
        "meta_inclination": 45.0396,
        "meta_ra_of_asc_node": 8.9551,
        "meta_arg_of_pericenter": 343.5927,
        "meta_mean_anomaly": 16.4663,
        "meta_ephemeris_type": 0,
        "meta_classification_type": "U",
        "meta_norad_cat_id": 60453,
        "meta_element_set_no": 999,
        "meta_rev_at_epoch": 7351,
        "meta_bstar": 0.0002049792,
        "meta_mean_motion_dot": 3.73e-05,
        "meta_mean_motion_ddot": 0,
        "tle_line1": "1 60453U 24146B   25352.88542381  .00003730  00000+0  20498-3 0  9999",
        "tle_line2": "2 60453  45.0396   8.9551 0008914 343.5927  16.4663 15.15886403 73513"
      },
      "geometry": {
        "type": "Point",
        "coordinates": [
          -150.32108190460966,
          -21.95687236324229
        ]
      }
    },
    {
      "type": "Feature",
      "properties": {
        "norad_id": 60989,
        "name": "SENTINEL-2C",
        "group": "resource",
        "lat": -4.88914244401707,
        "lon": 66.57602785278958,
        "alt_km": 792.6816769763291,
        "timestamp": "2025-12-19T10:50:00.849674+00:00",
        "meta_object_name": "SENTINEL-2C",
        "meta_object_id": "2024-157A",
        "meta_epoch": "2025-12-18T19:45:06.286752",
        "meta_mean_motion": 14.30819875,
        "meta_eccentricity": 0.00012222,
        "meta_inclination": 98.5678,
        "meta_ra_of_asc_node": 65.2179,
        "meta_arg_of_pericenter": 96.329,
        "meta_mean_anomaly": 263.8032,
        "meta_ephemeris_type": 0,
        "meta_classification_type": "U",
        "meta_norad_cat_id": 60989,
        "meta_element_set_no": 999,
        "meta_rev_at_epoch": 6719,
        "meta_bstar": 5.9698295e-05,
        "meta_mean_motion_dot": 1.13e-06,
        "meta_mean_motion_ddot": 0,
        "tle_line1": "1 60989U 24157A   25352.82298943  .00000113  00000+0  59698-4 0  9998",
        "tle_line2": "2 60989  98.5678  65.2179 0001222  96.3290 263.8032 14.30819875 67196"
      },
      "geometry": {
        "type": "Point",
        "coordinates": [
          66.57602785278958,
          -4.88914244401707
        ]
      }
    },
    {
      "type": "Feature",
      "properties": {
        "norad_id": 61735,
        "name": "IONOSFERA-M 1",
        "group": "resource",
        "lat": 64.60986784248986,
        "lon": -155.66439865903806,
        "alt_km": 809.5739396741774,
        "timestamp": "2025-12-19T10:50:00.849684+00:00",
        "meta_object_name": "IONOSFERA-M 1",
        "meta_object_id": "2024-199A",
        "meta_epoch": "2025-12-18T22:42:32.812704",
        "meta_mean_motion": 14.22715341,
        "meta_eccentricity": 6.608e-05,
        "meta_inclination": 98.74,
        "meta_ra_of_asc_node": 222.7467,
        "meta_arg_of_pericenter": 12.8815,
        "meta_mean_anomaly": 347.238,
        "meta_ephemeris_type": 0,
        "meta_classification_type": "U",
        "meta_norad_cat_id": 61735,
        "meta_element_set_no": 999,
        "meta_rev_at_epoch": 10207,
        "meta_bstar": 4.1046659e-05,
        "meta_mean_motion_dot": 4.8e-07,
        "meta_mean_motion_ddot": 0,
        "tle_line1": "1 61735U 24199A   25352.94621311  .00000048  00000+0  41047-4 0  9992",
        "tle_line2": "2 61735  98.7400 222.7467 0000660  12.8815 347.2380 14.22715341102076"
      },
      "geometry": {
        "type": "Point",
        "coordinates": [
          -155.66439865903806,
          64.60986784248986
        ]
      }
    },
    {
      "type": "Feature",
      "properties": {
        "norad_id": 61736,
        "name": "IONOSFERA-M 2",
        "group": "resource",
        "lat": -67.21731396964563,
        "lon": 21.673092073904026,
        "alt_km": 824.4774173447304,
        "timestamp": "2025-12-19T10:50:00.849695+00:00",
        "meta_object_name": "IONOSFERA-M 2",
        "meta_object_id": "2024-199B",
        "meta_epoch": "2025-12-18T23:32:25.502208",
        "meta_mean_motion": 14.22717531,
        "meta_eccentricity": 0.00017801,
        "meta_inclination": 98.7406,
        "meta_ra_of_asc_node": 222.6935,
        "meta_arg_of_pericenter": 102.6526,
        "meta_mean_anomaly": 257.4852,
        "meta_ephemeris_type": 0,
        "meta_classification_type": "U",
        "meta_norad_cat_id": 61736,
        "meta_element_set_no": 999,
        "meta_rev_at_epoch": 10520,
        "meta_bstar": 3.9102423e-05,
        "meta_mean_motion_dot": 4.3e-07,
        "meta_mean_motion_ddot": 0,
        "tle_line1": "1 61736U 24199B   25352.98085072  .00000043  00000+0  39102-4 0  9999",
        "tle_line2": "2 61736  98.7406 222.6935 0001780 102.6526 257.4852 14.22717531105200"
      },
      "geometry": {
        "type": "Point",
        "coordinates": [
          21.673092073904026,
          -67.21731396964563
        ]
      }
    },
    {
      "type": "Feature",
      "properties": {
        "norad_id": 63772,
        "name": "BIOMASS",
        "group": "resource",
        "lat": 78.75681918169523,
        "lon": 132.82479587657014,
        "alt_km": 660.8585029954802,
        "timestamp": "2025-12-19T10:50:00.849705+00:00",
        "meta_object_name": "BIOMASS",
        "meta_object_id": "2025-090A",
        "meta_epoch": "2025-12-18T23:00:21.805344",
        "meta_mean_motion": 14.67534226,
        "meta_eccentricity": 0.00010686,
        "meta_inclination": 98.0699,
        "meta_ra_of_asc_node": 177.8778,
        "meta_arg_of_pericenter": 78.354,
        "meta_mean_anomaly": 281.7785,
        "meta_ephemeris_type": 0,
        "meta_classification_type": "U",
        "meta_norad_cat_id": 63772,
        "meta_element_set_no": 999,
        "meta_rev_at_epoch": 3425,
        "meta_bstar": 0.00015489535,
        "meta_mean_motion_dot": 8.3e-06,
        "meta_mean_motion_ddot": 0,
        "tle_line1": "1 63772U 25090A   25352.95858571  .00000830  00000+0  15490-3 0  9998",
        "tle_line2": "2 63772  98.0699 177.8778 0001068  78.3540 281.7785 14.67534226 34257"
      },
      "geometry": {
        "type": "Point",
        "coordinates": [
          132.82479587657014,
          78.75681918169523
        ]
      }
    }
  ]
}